STARLINK-30274          
1 57672C 23124K   26083.61506944  .00059126  00000+0  19935-2 0   838
2 57672  53.1574 137.6225 0001278  84.1453 206.1553 15.30149490    12
STARLINK-30316          
1 57673C 23124L   26083.76437500 -.00022554  00000+0 -76077-3 0   834
2 57673  53.1568 137.0581 0000996  66.9629 210.0070 15.30177080    18
STARLINK-30313          
1 57676C 23124P   26083.80812500 -.00066257  00000+0 -22324-2 0   832
2 57676  53.1572 136.7602 0001072  84.9957 171.9147 15.30234873    10
STARLINK-30303          
1 57677C 23124Q   26083.61993056  .00055180  00000+0  18591-2 0   830
2 57677  53.1580 137.1310 0001006  88.8671  89.2700 15.30176763    13
STARLINK-30320          
1 57678C 23124R   26083.75951389 -.00032152  00000+0 -10835-2 0   838
2 57678  53.1577 124.0522 0001290  87.4487 340.2104 15.30210142    13
STARLINK-30321          
1 57679C 23124S   26083.80881944 -.00039020  00000+0 -13147-2 0   834
2 57679  53.1588 136.3695 0001118  72.8290   8.2487 15.30221279    10
STARLINK-30283          
1 57680C 23124T   26083.81645833 -.00033200  00000+0 -11186-2 0   837
2 57680  53.1570 136.7251 0001241  80.8845 187.1004 15.30219590    12
STARLINK-30273          
1 57681C 23124U   26083.78104167 -.00034179  00000+0 -11515-2 0   836
2 57681  53.1590 136.9348 0001069  89.1275 181.0299 15.30221208    19
STARLINK-30297          
1 57682C 23124V   26083.75187500 -.00018743  00000+0 -63181-3 0   832
2 57682  53.1568 137.0562 0001445  72.1087 217.2357 15.30196243    13
STARLINK-30295          
1 57683C 23124W   26083.63937500  .00040116  00000+0  13518-2 0   838
2 57683  53.1567 137.6312 0001362  97.2982 222.3598 15.30177553    19
STARLINK-30288          
1 57698C 23129A   26083.78173611  .00046118  00000+0  16727-2 0   833
2 57698  43.0016  33.0409 0001762 269.5320 184.8849 15.27509983    15
STARLINK-30347          
1 57699C 23129B   26083.80604167  .00040479  00000+0  15027-2 0   838
2 57699  43.0006  21.1385 0001575 257.5141 262.4623 15.26748569    13
STARLINK-30332          
1 57700C 23129C   26083.81576389  .00035678  00000+0  25767-2 0   833
2 57700  43.0026  37.7227 0000805 259.5786 120.4452 15.03324461    17
STARLINK-30345          
1 57701C 23129D   26083.75881944  .00045375  00000+0  16425-2 0   839
2 57701  43.0024  32.7175 0001873 275.7780 250.5684 15.27574878    10
STARLINK-30333          
1 57702C 23129E   26083.58173611 -.00009049  00000+0 -32751-3 0   837
2 57702  43.0040  33.4660 0001483 269.0265 108.4599 15.27606597    17
STARLINK-30336          
1 57703C 23129F   26083.75812500  .00027984  00000+0  10154-2 0   832
2 57703  43.0016  32.8021 0001822 273.4103 213.9193 15.27505545    15
STARLINK-30346          
1 57704C 23129G   26083.76229167  .00051425  00000+0  18630-2 0   839
2 57704  43.0036  32.5467 0001253 258.2747 350.8654 15.27546886    18
STARLINK-30327          
1 57707C 23129K   26083.83104167  .00060896  00000+0  21562-2 0   832
2 57707  43.0020 359.5200 0023610 178.1682 244.4507 15.28014502    11
STARLINK-30315          
1 57708C 23129L   26083.77201389  .00046815  00000+0  16964-2 0   835
2 57708  43.0016  32.6686 0001322 268.1958 316.6700 15.27541447    15
STARLINK-30287          
1 57709C 23129M   26083.56506944 -.00039007  00000+0 -14132-2 0   830
2 57709  43.0045  33.7084 0001678 259.0848 322.9856 15.27588315    10
STARLINK-30335          
1 57710C 23129N   26083.59215278 -.00012046  00000+0 -43609-3 0   838
2 57710  43.0038  33.6030 0001517 268.4027  81.5403 15.27601714    14
STARLINK-30318          
1 57711C 23129P   26083.75326389  .00047300  00000+0  17135-2 0   836
2 57711  43.0035  32.5318 0001897 258.1621 322.5192 15.27548021    10
STARLINK-30348          
1 57712C 23129Q   26083.78243056  .00046418  00000+0  16802-2 0   838
2 57712  43.0011  32.7590 0001420 270.8913 307.6329 15.27576142    17
STARLINK-30349          
1 57713C 23129R   26083.75534722  .00051574  00000+0  18669-2 0   831
2 57713  43.0008  33.0089 0001258 260.3074 126.6683 15.27573052    11
STARLINK-30341          
1 57714C 23129S   26083.78729167  .00057658  00000+0  20897-2 0   839
2 57714  43.0008  35.9557 0001807 260.6251  58.1523 15.27528309    10
STARLINK-30300          
1 57715C 23129T   26083.79493056  .00054439  00000+0  19701-2 0   832
2 57715  43.0014  32.6377 0001511 271.8783  36.6967 15.27579350    13
STARLINK-30281          
1 57716C 23129U   26083.74076389  .00046386  00000+0  16793-2 0   834
2 57716  43.0010  33.2231 0000492 204.4731  45.6104 15.27572518    10
STARLINK-30325          
1 57717C 23129V   26083.65048611 -.00005015  00000+0 -18170-3 0   830
2 57717  43.0017  33.5495 0001740 265.2740 285.5875 15.27568142    13
STARLINK-30338          
1 57718C 23129W   26083.55326389 -.00067307  00000+0 -24381-2 0   833
2 57718  43.0017  34.2310 0001502 263.4834  55.4959 15.27608214    10
STARLINK-30334          
1 57719C 23129X   26083.82131944  .00050378  00000+0  18230-2 0   839
2 57719  43.0011  32.6701 0001272 264.1223 111.9273 15.27583154    17
STARLINK-30375          
1 57732C 23131A   26083.74909722 -.00020042  00000+0 -74475-3 0   836
2 57732  43.0018  72.4439 0001356 265.4245 152.0586 15.26746119    14
STARLINK-30310          
1 57733C 23131B   26083.77548611 -.00021513  00000+0 -15896-2 0   831
2 57733  43.0024  89.4166 0001524 261.3239 258.6638 15.02493779    18
STARLINK-30365          
1 57734C 23131C   26083.63312500 -.00015816  00000+0 -58741-3 0   839
2 57734  43.0004  87.8903 0001447 273.5226  79.3666 15.26762518    18
STARLINK-30371          
1 57735C 23131D   26083.80256944 -.00009417  00000+0 -69477-3 0   836
2 57735  43.0026  89.4425 0001512 270.6111 323.9504 15.02542369    17
STARLINK-30352          
1 57736C 23131E   26083.76368056 -.00023607  00000+0 -17417-2 0   833
2 57736  43.0030  89.5251 0001375 272.9262 165.1343 15.02550449    15
STARLINK-30344          
1 57737C 23131F   26083.60048611 -.00005985  00000+0 -41064-3 0   834
2 57737  43.0012  90.2632 0001118 265.4289  77.5994 15.05259901    19
STARLINK-30351          
1 57738C 23131G   26083.75743056 -.00050233  00000+0 -18195-2 0   830
2 57738  43.0005  87.1441 0001298 263.2994  88.2505 15.27601989    11
STARLINK-30242          
1 57739C 23131H   26083.77479167  .00027350  00000+0  99009-3 0   838
2 57739  43.0023  58.4548 0001488 270.2158 297.6690 15.27581923    18
STARLINK-30331          
1 57740C 23131J   26083.76020833  .00051195  00000+0  18525-2 0   838
2 57740  43.0036  14.2916 0001531 269.3397 301.8194 15.27585092    14
STARLINK-30364          
1 57741C 23131K   26083.73729167 -.00026907  00000+0 -99932-3 0   839
2 57741  43.0022  87.1048 0001410 268.1387  36.2728 15.26767191    10
STARLINK-30308          
1 57742C 23131L   26083.77965278 -.00045777  00000+0 -17009-2 0   839
2 57742  43.0005  87.0760 0001463 263.0305 185.3574 15.26761822    14
STARLINK-30361          
1 57743C 23131M   26083.79284722 -.00003041  00000+0 -11309-3 0   836
2 57743  43.0012  86.8661 0001200 261.3331 316.5156 15.26716111    14
STARLINK-30363          
1 57744C 23131N   26083.75881944 -.00023648  00000+0 -87872-3 0   835
2 57744  43.0033  72.5683 0001472 261.1446 136.6265 15.26750206    15
STARLINK-30362          
1 57745C 23131P   26083.80187500  .00002120  00000+0  78760-4 0   836
2 57745  43.0023  87.4621 0001618 270.9376  82.1838 15.26748008    12
STARLINK-30350          
1 57746C 23131Q   26083.73173611 -.00018322  00000+0 -66333-3 0   832
2 57746  43.0037  84.1081 0001002 290.6691 177.5679 15.27601616    14
STARLINK-30307          
1 57747C 23131R   26083.78104167 -.00006926  00000+0 -25729-3 0   839
2 57747  43.0007  87.2112 0001183 260.3566 133.4084 15.26748704    16
STARLINK-30356          
1 57748C 23131S   26083.78659722 -.00005699  00000+0 -21173-3 0   837
2 57748  43.0020  86.6043 0001458 263.9184  44.2672 15.26745512    14
STARLINK-30366          
1 57749C 23131T   26083.78381944  .00352780  00000+0  19626-1 0   838
2 57749  43.0009  89.0017 0001728 270.4653  92.0817 15.12719402    10
STARLINK-30357          
1 57750C 23131U   26083.52826389  .00039722  00000+0  29310-2 0   839
2 57750  43.0023  90.8476 0001404 283.0012 302.1513 15.02515408    14
STARLINK-30370          
1 57751C 23131V   26083.80604167  .00029580  00000+0  10712-2 0   836
2 57751  43.0013  72.1784 0001344 258.4254 103.8695 15.27570106    16
STARLINK-30368          
1 57752C 23131W   26083.75187500 -.00023236  00000+0 -86309-3 0   838
2 57752  43.0010  87.2888 0001025 264.2514 351.4932 15.26761872    12
STARLINK-30343          
1 57753C 23131X   26083.66645833 -.00031245  00000+0 -23051-2 0   830
2 57753  43.0024  90.1390 0001513 276.3165 319.1813 15.02557317    17
STARLINK-30397          
1 57771C 23134A   26083.79354167 -.00023912  00000+0 -86621-3 0   839
2 57771  43.0039 109.4075 0001114 276.9771 104.1963 15.27585757    17
STARLINK-30354          
1 57772C 23134B   26083.78520833 -.00069315  00000+0 -25751-2 0   837
2 57772  43.0014 112.1525 0001588 265.6611   4.4473 15.26778449    14
STARLINK-30383          
1 57773C 23134C   26083.72965278 -.00029149  00000+0 -10559-2 0   839
2 57773  43.0015 112.6310 0001580 268.1097 350.4510 15.27589052    18
STARLINK-30384          
1 57774C 23134D   26083.78381944 -.00084628  00000+0 -31432-2 0   834
2 57774  43.0015 112.0937 0001603 267.3349  25.4365 15.26794777    13
STARLINK-30305          
1 57775C 23134E   26083.78034722 -.00030052  00000+0 -10872-2 0   831
2 57775  43.0040 109.5297 0001311 278.6878   8.6652 15.27631719    19
STARLINK-30360          
1 57776C 23134F   26083.56020833  .00065328  00000+0  23660-2 0   837
2 57776  43.0039 110.7911 0001452 265.6935 242.5481 15.27548654    15
STARLINK-30355          
1 57777C 23134G   26083.75048611 -.00053547  00000+0 -19894-2 0   839
2 57777  42.9998 112.6896 0001360 265.9351  20.3041 15.26769584    14
